NORAD_CAT_ID,OBJECT_NAME,OBJECT_TYPE,EPOCH,MEAN_MOTION,ECCENTRICITY,INCLINATION,RA_OF_ASC_NODE,ARG_OF_PERICENTER,MEAN_ANOMALY,BSTAR,MEAN_MOTION_DOT,MEAN_MOTION_DDOT,TLE_LINE0,TLE_LINE1,TLE_LINE2,SEMIMAJOR_AXIS,PERIOD,APOGEE,PERIGEE,DECAYED
54184.0,STARLINK-5162,PAYLOAD,2024-05-29 22:00:01,15.08841389,0.000153,53.2166,36.9368,88.7489,126.1639,-0.00050451,-8.309e-05,0.0,0 STARLINK-5162,1 54184U 22141AD  24150.91668981 -.00008309  00000-0 -50451-3 0  9992,2 54184  53.2166  36.9368 0001530  88.7489 126.1639 15.08841389  5847,6917.876,95.437,540.8,538.683,0.0
54184.0,STARLINK-5162,PAYLOAD,2024-05-30 06:00:00,15.08849585,0.0001469,53.2166,35.4404,83.9479,142.4878,-0.0018335,-0.00029357,0.0,0 STARLINK-5162,1 54184U 22141AD  24151.25001157 -.00029357  00000-0 -18335-2 0  9996,2 54184  53.2166  35.4404 0001469  83.9479 142.4878 15.08849585 88190,6917.851,95.437,540.732,538.7,0.0
54184.0,STARLINK-5162,PAYLOAD,2024-05-30 14:00:01,15.08815788,0.0001454,53.2168,33.9424,90.37,147.676,0.0038599,0.00061639,0.0,0 STARLINK-5162,1 54184U 22141AD  24151.58334491  .00061639  00000-0  38599-2 0  9993,2 54184  53.2168  33.9424 0001454  90.3700 147.6760 15.08815788  5745,6917.954,95.439,540.825,538.814,0.0
54184.0,STARLINK-5162,PAYLOAD,2024-05-30 22:00:01,15.08860671,0.000148,53.217,32.4475,85.1065,164.5853,-0.0011129,-0.00017966,0.0,0 STARLINK-5162,1 54184U 22141AD  24151.91668981 -.00017966  00000-0 -11129-2 0  9990,2 54184  53.2170  32.4475 0001480  85.1065 164.5853 15.08860671 88296,6917.817,95.436,540.706,538.658,0.0
54184.0,STARLINK-5162,PAYLOAD,2024-05-31 14:00:01,15.08809149,0.000126,53.2175,29.4531,96.4749,176.3644,0.0039254,0.00062687,0.0,0 STARLINK-5162,1 54184U 22141AD  24152.58334491  .00062687  00000-0  39254-2 0  9997,2 54184  53.2175  29.4531 0001260  96.4749 176.3644 15.08809149  5741,6917.975,95.44,540.711,538.968,0.0
54184.0,STARLINK-5162,PAYLOAD,2024-05-31 22:00:00,15.08862052,0.0001272,53.2177,27.9584,85.6423,198.7763,-0.0020764,-0.00033201,0.0,0 STARLINK-5162,1 54184U 22141AD  24152.91667824 -.00033201  00000-0 -20764-2 0  9991,2 54184  53.2177  27.9584 0001272  85.6423 198.7763 15.08862052  5793,6917.813,95.436,540.558,538.798,0.0
54184.0,STARLINK-5162,PAYLOAD,2024-06-01 06:00:00,15.08841707,0.0001209,53.2178,26.4619,77.8654,218.1621,-0.0027924,-0.00044456,0.0,0 STARLINK-5162,1 54184U 22141AD  24153.25001157 -.00044456  00000-0 -27924-2 0  9999,2 54184  53.2178  26.4619 0001209  77.8654 218.1621 15.08841707 88498,6917.875,95.437,540.577,538.904,0.0
54184.0,STARLINK-5162,PAYLOAD,2024-06-01 14:00:01,15.08801927,0.0001212,53.2181,24.9642,86.8678,220.7403,0.0037249,0.00059432,0.0,0 STARLINK-5162,1 54184U 22141AD  24153.58334491  .00059432  00000-0  37249-2 0  9994,2 54184  53.2181  24.9642 0001212  86.8678 220.7403 15.08801927  5790,6917.997,95.44,540.7,539.023,0.0
54184.0,STARLINK-5162,PAYLOAD,2024-06-01 22:00:00,15.08844375,0.0001246,53.2181,23.4696,78.5864,240.5921,-0.00068078,-0.00011107,0.0,0 STARLINK-5162,1 54184U 22141AD  24153.91667824 -.00011107  00000-0 -68078-3 0  9994,2 54184  53.2181  23.4696 0001246  78.5864 240.5921 15.08844375 88593,6917.867,95.437,540.594,538.87,0.0
54184.0,STARLINK-5162,PAYLOAD,2024-06-02 07:43:10,15.08843709,0.0001351,53.2198,21.6512,86.5804,273.5343,1.7059e-05,-1.6e-07,0.0,0 STARLINK-5162,1 54184U 22141AD  24154.32164610 -.00000016  00000-0  17059-4 0  9995,2 54184  53.2198  21.6512 0001351  86.5804 273.5343 15.08843709 88659,6917.869,95.437,540.669,538.799,0.0
54184.0,STARLINK-5162,PAYLOAD,2024-06-02 22:01:39,15.0882284,0.0001359,53.2215,18.9758,87.8747,272.2401,-8.3847e-06,-4.21e-06,0.0,0 STARLINK-5162,1 54184U 22141AD  24154.91782301 -.00000421  00000-0 -83847-5 0  9993,2 54184  53.2215  18.9758 0001359  87.8747 272.2401 15.08822840 88517,6917.933,95.439,540.738,538.858,0.0
54184.0,STARLINK-5162,PAYLOAD,2024-06-03 07:33:58,15.08828011,0.0001563,53.2198,17.1929,94.6586,265.4585,-3.8816e-06,-3.5e-06,0.0,0 STARLINK-5162,1 54184U 22141AD  24155.31526340 -.00000350  00000-0 -38816-5 0  9994,2 54184  53.2198  17.1929 0001563  94.6586 265.4585 15.08828011 88571,6917.917,95.438,540.863,538.701,0.0
54184.0,STARLINK-5162,PAYLOAD,2024-06-04 07:24:44,15.0884619,0.0001299,53.2193,12.7277,71.4523,288.661,0.00017073,2.431e-05,0.0,0 STARLINK-5162,1 54184U 22141AD  24156.30884751  .00002431  00000-0  17073-3 0  9997,2 54184  53.2193  12.7277 0001299  71.4523 288.6610 15.08846190 88959,6917.861,95.437,540.625,538.828,0.0
54184.0,STARLINK-5162,PAYLOAD,2024-06-05 07:15:31,15.0884257,0.0001342,53.2201,8.2695,87.7204,272.3942,5.3842e-05,5.69e-06,0.0,0 STARLINK-5162,1 54184U 22141AD  24157.30245044  .00000569  00000-0  53842-4 0  9999,2 54184  53.2201   8.2695 0001342  87.7204 272.3942 15.08842570 89102,6917.873,95.437,540.666,538.809,0.0
54184.0,STARLINK-5162,PAYLOAD,2024-06-05 19:58:37,15.08833129,0.0001484,53.2203,5.8907,87.3742,272.742,-1.8653e-05,-5.85e-06,0.0,0 STARLINK-5162,1 54184U 22141AD  24157.83238101 -.00000585  00000-0 -18653-4 0  9994,2 54184  53.2203   5.8907 0001484  87.3742 272.7420 15.08833129 89186,6917.901,95.438,540.793,538.74,0.0
54184.0,STARLINK-5162,PAYLOAD,2024-06-06 07:06:19,15.08837777,0.0001586,53.2198,3.808,86.8385,273.2788,3.2337e-05,2.27e-06,0.0,0 STARLINK-5162,1 54184U 22141AD  24158.29605924  .00000227  00000-0  32337-4 0  9992,2 54184  53.2198   3.8080 0001586  86.8385 273.2788 15.08837777 89028,6917.887,95.438,540.849,538.655,0.0
54184.0,STARLINK-5162,PAYLOAD,2024-06-06 19:49:24,15.08839986,0.0001589,53.2085,1.4275,85.3095,274.8078,2.5238e-05,1.14e-06,0.0,0 STARLINK-5162,1 54184U 22141AD  24158.82597646  .00000114  00000-0  25238-4 0  9999,2 54184  53.2085   1.4275 0001589  85.3095 274.8078 15.08839986 89335,6917.88,95.438,540.845,538.646,0.0
54184.0,STARLINK-5162,PAYLOAD,2024-06-07 19:40:11,15.08839447,0.0001937,53.2155,356.9689,94.0334,266.0879,0.00010955,1.456e-05,0.0,0 STARLINK-5162,1 54184U 22141AD  24159.81957602  .00001456  00000-0  10955-3 0  9990,2 54184  53.2155 356.9689 0001937  94.0334 266.0879 15.08839447 89255,6917.882,95.438,541.087,538.407,0.0
54184.0,STARLINK-5162,PAYLOAD,2024-06-08 13:09:26,15.08830527,0.0001963,53.2148,353.6957,102.828,257.2932,0.00022608,3.311e-05,0.0,0 STARLINK-5162,1 54184U 22141AD  24160.54821837  .00003311  00000-0  22608-3 0  9992,2 54184  53.2148 353.6957 0001963 102.8280 257.2932 15.08830527 89595,6917.909,95.438,541.132,538.416,0.0
54184.0,STARLINK-5162,PAYLOAD,2024-06-08 21:06:21,15.08842334,0.0001296,53.2155,352.2132,85.4896,274.6244,1.2227e-05,-9.3e-07,0.0,0 STARLINK-5162,1 54184U 22141AD  24160.87941780 -.00000093  00000-0  12227-4 0  9990,2 54184  53.2155 352.2132 0001296  85.4896 274.6244 15.08842334 89410,6917.873,95.437,540.635,538.842,0.0
54184.0,STARLINK-5162,PAYLOAD,2024-06-09 13:00:13,15.0883309,0.0001392,53.2148,349.24,87.2391,272.876,5.5349e-05,5.93e-06,0.0,0 STARLINK-5162,1 54184U 22141AD  24161.54182341  .00000593  00000-0  55349-4 0  9991,2 54184  53.2148 349.2400 0001392  87.2391 272.8760 15.08833090 89516,6917.902,95.438,540.729,538.804,0.0
54184.0,STARLINK-5162,PAYLOAD,2024-06-09 19:21:46,15.08827037,0.0001388,53.2154,348.0485,89.9232,270.1919,-1.3622e-05,-5.05e-06,0.0,0 STARLINK-5162,1 54184U 22141AD  24161.80679053 -.00000505  00000-0 -13622-4 0  9994,2 54184  53.2154 348.0485 0001388  89.9232 270.1919 15.08827037 89781,6917.92,95.438,540.745,538.825,0.0
54184.0,STARLINK-5162,PAYLOAD,2024-06-09 20:57:09,15.08829632,0.0001119,53.2184,347.7504,88.2803,271.8317,-2.2795e-05,-6.5e-06,0.0,0 STARLINK-5162,1 54184U 22141AD  24161.87302904 -.00000650  00000-0 -22795-4 0  9991,2 54184  53.2184 347.7504 0001119  88.2803 271.8317 15.08829632 89569,6917.912,95.438,540.551,539.003,0.0
54184.0,STARLINK-5162,PAYLOAD,2024-06-10 04:54:04,15.08841563,9.65e-05,53.219,346.2638,90.7086,269.4016,7.8357e-05,9.6e-06,0.0,0 STARLINK-5162,1 54184U 22141AD  24162.20422197  .00000960  00000-0  78357-4 0  9993,2 54184  53.2190 346.2638 0000965  90.7086 269.4016 15.08841563 89844,6917.876,95.437,540.408,539.073,0.0
54184.0,STARLINK-5162,PAYLOAD,2024-06-10 11:15:37,15.08836303,0.0001315,53.217,345.0784,89.5841,270.5302,6.3088e-05,7.16e-06,0.0,0 STARLINK-5162,1 54184U 22141AD  24162.46918460  .00000716  00000-0  63088-4 0  9998,2 54184  53.2170 345.0784 0001315  89.5841 270.5302 15.08836303 89652,6917.892,95.438,540.666,538.847,0.0
54184.0,STARLINK-5162,PAYLOAD,2024-06-10 17:37:10,15.08833355,0.0001167,53.2184,343.8887,87.7948,272.3178,3.8906e-05,3.31e-06,0.0,0 STARLINK-5162,1 54184U 22141AD  24162.73414873  .00000331  00000-0  38906-4 0  9991,2 54184  53.2184 343.8887 0001167  87.7948 272.3178 15.08833355 89925,6917.901,95.438,540.573,538.958,0.0
54184.0,STARLINK-5162,PAYLOAD,2024-06-11 04:44:51,15.08848664,0.0001168,53.2194,341.8026,70.3482,289.7636,0.00017809,2.548e-05,0.0,0 STARLINK-5162,1 54184U 22141AD  24163.19781369  .00002548  00000-0  17809-3 0  9999,2 54184  53.2194 341.8026 0001168  70.3482 289.7636 15.08848664 89998,6917.854,95.437,540.527,538.911,0.0
54184.0,STARLINK-5162,PAYLOAD,2024-06-12 04:35:38,15.08853594,0.0001034,53.2187,337.3434,76.1457,283.965,0.00014331,1.995e-05,0.0,0 STARLINK-5162,1 54184U 22141AD  24164.19141272  .00001995  00000-0  14331-3 0  9995,2 54184  53.2187 337.3434 0001034  76.1457 283.9650 15.08853594 90140,6917.839,95.437,540.419,538.989,0.0
54184.0,STARLINK-5162,PAYLOAD,2024-06-12 20:29:30,15.08836903,0.0001133,53.2183,334.3695,85.1856,274.9265,-9.8855e-07,-3.04e-06,0.0,0 STARLINK-5162,1 54184U 22141AD  24164.85383066 -.00000304  00000-0 -98855-6 0  9998,2 54184  53.2183 334.3695 0001133  85.1856 274.9265 15.08836903 90243,6917.89,95.438,540.539,538.971,0.0
54184.0,STARLINK-5162,PAYLOAD,2024-06-13 04:26:25,15.08856152,0.0001005,53.2189,332.8832,110.7863,249.3237,-0.00017824,-3.125e-05,0.0,0 STARLINK-5162,1 54184U 22141AD  24165.18501995 -.00003125  00000-0 -17824-3 0  9996,2 54184  53.2189 332.8832 0001005 110.7863 249.3237 15.08856152 90294,6917.831,95.437,540.391,539.001,0.0
